{
  "type": "FeatureCollection",
  "features": [
    {
      "type": "Feature",
      "properties": {
        "norad_id": 66909,
        "name": "SILVERSAT",
        "group": "stations",
        "lat": -17.23826317497801,
        "lon": -97.14567390353453,
        "alt_km": 409.86225015445143,
        "timestamp": "2025-12-27T13:34:48.042589+00:00",
        "meta_object_name": "SILVERSAT",
        "meta_object_id": "1998-067XV",
        "meta_epoch": "2025-12-27T04:59:41.464320",
        "meta_mean_motion": 15.53631692,
        "meta_eccentricity": 0.0003877,
        "meta_inclination": 51.6317,
        "meta_ra_of_asc_node": 70.4068,
        "meta_arg_of_pericenter": 318.5439,
        "meta_mean_anomaly": 41.5257,
        "meta_ephemeris_type": 0,
        "meta_classification_type": "U",
        "meta_norad_cat_id": 66909,
        "meta_element_set_no": 999,
        "meta_rev_at_epoch": 386,
        "meta_bstar": 0.0011884923,
        "meta_mean_motion_dot": 0.00077561,
        "meta_mean_motion_ddot": 0,
        "tle_line1": "1 66909U 98067XV  25361.20811880  .00077561  00000+0  11885-2 0  9995",
        "tle_line2": "2 66909  51.6317  70.4068 0003877 318.5439  41.5257 15.53631692  3860"
      },
      "geometry": {
        "type": "Point",
        "coordinates": [
          -97.14567390353453,
          -17.23826317497801
        ]
      }
    },
    {
      "type": "Feature",
      "properties": {
        "norad_id": 66910,
        "name": "1998-067XW",
        "group": "stations",
        "lat": -23.51546917014518,
        "lon": -91.22830105433094,
        "alt_km": 409.1143088128465,
        "timestamp": "2025-12-27T13:34:48.042599+00:00",
        "meta_object_name": "1998-067XW",
        "meta_object_id": "1998-067XW",
        "meta_epoch": "2025-12-27T04:57:29.407104",
        "meta_mean_motion": 15.53518427,
        "meta_eccentricity": 0.00037007,
        "meta_inclination": 51.6298,
        "meta_ra_of_asc_node": 70.3949,
        "meta_arg_of_pericenter": 289.8313,
        "meta_mean_anomaly": 70.2278,
        "meta_ephemeris_type": 0,
        "meta_classification_type": "U",
        "meta_norad_cat_id": 66910,
        "meta_element_set_no": 999,
        "meta_rev_at_epoch": 386,
        "meta_bstar": 0.0010805922,
        "meta_mean_motion_dot": 0.00070117,
        "meta_mean_motion_ddot": 0,
        "tle_line1": "1 66910U 98067XW  25361.20659036  .00070117  00000+0  10806-2 0  9992",
        "tle_line2": "2 66910  51.6298  70.3949 0003700 289.8313  70.2278 15.53518427  3865"
      },
      "geometry": {
        "type": "Point",
        "coordinates": [
          -91.22830105433094,
          -23.51546917014518
        ]
      }
    },
    {
      "type": "Feature",
      "properties": {
        "norad_id": 66911,
        "name": "1998-067XX",
        "group": "stations",
        "lat": -41.02782520032749,
        "lon": -67.86611694423273,
        "alt_km": 407.77842947827503,
        "timestamp": "2025-12-27T13:34:48.042609+00:00",
        "meta_object_name": "1998-067XX",
        "meta_object_id": "1998-067XX",
        "meta_epoch": "2025-12-27T04:50:55.382496",
        "meta_mean_motion": 15.54101067,
        "meta_eccentricity": 0.00034852,
        "meta_inclination": 51.6304,
        "meta_ra_of_asc_node": 70.3654,
        "meta_arg_of_pericenter": 298.8958,
        "meta_mean_anomaly": 61.1682,
        "meta_ephemeris_type": 0,
        "meta_classification_type": "U",
        "meta_norad_cat_id": 66911,
        "meta_element_set_no": 999,
        "meta_rev_at_epoch": 385,
        "meta_bstar": 0.0012899504,
        "meta_mean_motion_dot": 0.00085765,
        "meta_mean_motion_ddot": 0,
        "tle_line1": "1 66911U 98067XX  25361.20202989  .00085765  00000+0  12900-2 0  9996",
        "tle_line2": "2 66911  51.6304  70.3654 0003485 298.8958  61.1682 15.54101067  3858"
      },
      "geometry": {
        "type": "Point",
        "coordinates": [
          -67.86611694423273,
          -41.02782520032749
        ]
      }
    },
    {
      "type": "Feature",
      "properties": {
        "norad_id": 66912,
        "name": "1998-067XY",
        "group": "stations",
        "lat": 21.816023028472692,
        "lon": -129.7612875399889,
        "alt_km": 409.00514532145735,
        "timestamp": "2025-12-27T13:34:48.042618+00:00",
        "meta_object_name": "1998-067XY",
        "meta_object_id": "1998-067XY",
        "meta_epoch": "2025-12-27T05:12:20.650752",
        "meta_mean_motion": 15.52574078,
        "meta_eccentricity": 0.00038721,
        "meta_inclination": 51.6314,
        "meta_ra_of_asc_node": 70.4653,
        "meta_arg_of_pericenter": 305.7746,
        "meta_mean_anomaly": 54.2884,
        "meta_ephemeris_type": 0,
        "meta_classification_type": "U",
        "meta_norad_cat_id": 66912,
        "meta_element_set_no": 999,
        "meta_rev_at_epoch": 385,
        "meta_bstar": 0.00087690241,
        "meta_mean_motion_dot": 0.00054785,
        "meta_mean_motion_ddot": 0,
        "tle_line1": "1 66912U 98067XY  25361.21690568  .00054785  00000+0  87690-3 0  9999",
        "tle_line2": "2 66912  51.6314  70.4653 0003872 305.7746  54.2884 15.52574078  3854"
      },
      "geometry": {
        "type": "Point",
        "coordinates": [
          -129.7612875399889,
          21.816023028472692
        ]
      }
    }
  ]
}